{"type": "FeatureCollection", "features": [ {"type": "Feature", "properties": {"norad_id": 44804, "name": "CARTOSAT-3", "group": "resource", "lat": -77.68125007840167, "lon": 87.68132914705784, "alt_km": 523.8862973361884, "timestamp": "2025-12-17T07:00:46.549344+00:00", "meta": {"OBJECT_NAME": "CARTOSAT-3", "OBJECT_ID": "2019-081A", "EPOCH": "2025-12-16T23:27:42.155136", "MEAN_MOTION": 15.19186579, "ECCENTRICITY": 0.00139886, "INCLINATION": 97.4584, "RA_OF_ASC_NODE": 50.5079, "ARG_OF_PERICENTER": 69.7943, "MEAN_ANOMALY": 290.4794, "EPHEMERIS_TYPE": 0, "CLASSIFICATION_TYPE": "U", "NORAD_CAT_ID": 44804, "ELEMENT_SET_NO": 999, "REV_AT_EPOCH": 33580, "BSTAR": 0.00015246429, "MEAN_MOTION_DOT": 3.146e-05, "MEAN_MOTION_DDOT": 0}, "tle": {"line1": "1 44804U 19081A   25350.97757124  .00003146  00000+0  15246-3 0  9990", "line2": "2 44804  97.4584  50.5079 0013988  69.7943 290.4794 15.19186579335808"}}, "geometry": {"type": "Point", "coordinates": [87.68132914705784, -77.68125007840167]}}, {"type": "Feature", "properties": {"norad_id": 44819, "name": "GAOFEN-12 01", "group": "resource", "lat": 65.31059339375683, "lon": -165.16959479727936, "alt_km": 620.9860411820637, "timestamp": "2025-12-17T07:00:46.549354+00:00", "meta": {"OBJECT_NAME": "GAOFEN-12 01", "OBJECT_ID": "2019-082A", "EPOCH": "2025-12-17T00:00:52.896672", "MEAN_MOTION": 14.80662456, "ECCENTRICITY": 0.00015661, "INCLINATION": 97.8125, "RA_OF_ASC_NODE": 357.1698, "ARG_OF_PERICENTER": 210.5027, "MEAN_ANOMALY": 149.6095, "EPHEMERIS_TYPE": 0, "CLASSIFICATION_TYPE": "U", "NORAD_CAT_ID": 44819, "ELEMENT_SET_NO": 999, "REV_AT_EPOCH": 32713, "BSTAR": 6.5558285e-05, "MEAN_MOTION_DOT": 4.53e-06, "MEAN_MOTION_DDOT": 0}, "tle": {"line1": "1 44819U 19082A   25351.00061223  .00000453  00000+0  65558-4 0  9990", "line2": "2 44819  97.8125 357.1698 0001566 210.5027 149.6095 14.80662456327136"}}, "geometry": {"type": "Point", "coordinates": [-165.16959479727936, 65.31059339375683]}}, {"type": "Feature", "properties": {"norad_id": 44873, "name": "CSG-1", "group": "resource", "lat": -67.61925570730435, "lon": -27.107528716290485, "alt_km": 630.8160838427902, "timestamp": "2025-12-17T07:00:46.549365+00:00", "meta": {"OBJECT_NAME": "CSG-1", "OBJECT_ID": "2019-092A", "EPOCH": "2025-12-16T23:24:43.619904", "MEAN_MOTION": 14.82146118, "ECCENTRICITY": 0.00014924, "INCLINATION": 97.8803, "RA_OF_ASC_NODE": 172.2358, "ARG_OF_PERICENTER": 87.1132, "MEAN_ANOMALY": 273.0252, "EPHEMERIS_TYPE": 0, "CLASSIFICATION_TYPE": "U", "NORAD_CAT_ID": 44873, "ELEMENT_SET_NO": 999, "REV_AT_EPOCH": 32448, "BSTAR": 7.014063e-05, "MEAN_MOTION_DOT": 5.06e-06, "MEAN_MOTION_DDOT": 0}, "tle": {"line1": "1 44873U 19092A   25350.97550486  .00000506  00000+0  70141-4 0  9993", "line2": "2 44873  97.8803 172.2358 0001492  87.1132 273.0252 14.82146118324487"}}, "geometry": {"type": "Point", "coordinates": [-27.107528716290485, -67.61925570730435]}}, {"type": "Feature", "properties": {"norad_id": 46277, "name": "NEMO-HD", "group": "resource", "lat": -77.52848119342396, "lon": 85.31335048380622, "alt_km": 452.9520943681928, "timestamp": "2025-12-17T07:00:46.549375+00:00", "meta": {"OBJECT_NAME": "NEMO-HD", "OBJECT_ID": "2020-061F", "EPOCH": "2025-12-16T23:33:49.743072", "MEAN_MOTION": 15.40417407, "ECCENTRICITY": 0.00016049, "INCLINATION": 97.2214, "RA_OF_ASC_NODE": 50.0261, "ARG_OF_PERICENTER": 53.3892, "MEAN_ANOMALY": 306.7502, "EPHEMERIS_TYPE": 0, "CLASSIFICATION_TYPE": "U", "NORAD_CAT_ID": 46277, "ELEMENT_SET_NO": 999, "REV_AT_EPOCH": 29389, "BSTAR": 0.00022963261, "MEAN_MOTION_DOT": 9.207e-05, "MEAN_MOTION_DDOT": 0}, "tle": {"line1": "1 46277U 20061F   25350.98182573  .00009207  00000+0  22963-3 0  9995", "line2": "2 46277  97.2214  50.0261 0001604  53.3892 306.7502 15.40417407293895"}}, "geometry": {"type": "Point", "coordinates": [85.31335048380622, -77.52848119342396]}}, {"type": "Feature", "properties": {"norad_id": 46984, "name": "SENTINEL-6A", "group": "resource", "lat": -27.281902270337987, "lon": -13.890042666372684, "alt_km": 1339.4066997374357, "timestamp": "2025-12-17T07:00:46.549386+00:00", "meta": {"OBJECT_NAME": "SENTINEL-6A", "OBJECT_ID": "2020-086A", "EPOCH": "2025-12-16T20:33:01.253664", "MEAN_MOTION": 12.8093077, "ECCENTRICITY": 0.00077106, "INCLINATION": 66.039, "RA_OF_ASC_NODE": 153.7577, "ARG_OF_PERICENTER": 269.2591, "MEAN_ANOMALY": 90.7541, "EPHEMERIS_TYPE": 0, "CLASSIFICATION_TYPE": "U", "NORAD_CAT_ID": 46984, "ELEMENT_SET_NO": 999, "REV_AT_EPOCH": 23697, "BSTAR": 9.132593e-05, "MEAN_MOTION_DOT": -4e-07, "MEAN_MOTION_DDOT": 0}, "tle": {"line1": "1 46984U 20086A   25350.85626451 -.00000040  00000+0  91326-4 0  9998", "line2": "2 46984  66.0390 153.7577 0007710 269.2591  90.7541 12.80930770236971"}}, "geometry": {"type": "Point", "coordinates": [-13.890042666372684, -27.281902270337987]}}, {"type": "Feature", "properties": {"norad_id": 48079, "name": "GAOFEN-12 02", "group": "resource", "lat": 54.01399035944246, "lon": 176.42236199128564, "alt_km": 619.987939805168, "timestamp": "2025-12-17T07:00:46.549396+00:00", "meta": {"OBJECT_NAME": "GAOFEN-12 02", "OBJECT_ID": "2021-026A", "EPOCH": "2025-12-16T23:57:45.115776", "MEAN_MOTION": 14.80680373, "ECCENTRICITY": 0.00035947, "INCLINATION": 97.9852, "RA_OF_ASC_NODE": 344.9843, "ARG_OF_PERICENTER": 92.5824, "MEAN_ANOMALY": 267.58, "EPHEMERIS_TYPE": 0, "CLASSIFICATION_TYPE": "U", "NORAD_CAT_ID": 48079, "ELEMENT_SET_NO": 999, "REV_AT_EPOCH": 25480, "BSTAR": 6.6080148e-05, "MEAN_MOTION_DOT": 4.55e-06, "MEAN_MOTION_DDOT": 0}, "tle": {"line1": "1 48079U 21026A   25350.99843884  .00000455  00000+0  66080-4 0  9994", "line2": "2 48079  97.9852 344.9843 0003594  92.5824 267.5800 14.80680373254803"}}, "geometry": {"type": "Point", "coordinates": [176.42236199128564, 54.01399035944246]}}, {"type": "Feature", "properties": {"norad_id": 48268, "name": "PLEIADES NEO 3", "group": "resource", "lat": -28.16776619336311, "lon": -120.59321979599542, "alt_km": 630.3474196376965, "timestamp": "2025-12-17T07:00:46.549407+00:00", "meta": {"OBJECT_NAME": "PLEIADES NEO 3", "OBJECT_ID": "2021-034A", "EPOCH": "2025-12-16T23:35:32.896032", "MEAN_MOTION": 14.81674399, "ECCENTRICITY": 0.00013344, "INCLINATION": 97.8947, "RA_OF_ASC_NODE": 63.3632, "ARG_OF_PERICENTER": 90.6016, "MEAN_ANOMALY": 269.535, "EPHEMERIS_TYPE": 0, "CLASSIFICATION_TYPE": "U", "NORAD_CAT_ID": 48268, "ELEMENT_SET_NO": 999, "REV_AT_EPOCH": 25067, "BSTAR": 0.000169534, "MEAN_MOTION_DOT": 1.282e-05, "MEAN_MOTION_DDOT": 0}, "tle": {"line1": "1 48268U 21034A   25350.98301963  .00001282  00000+0  16953-3 0  9991", "line2": "2 48268  97.8947  63.3632 0001334  90.6016 269.5350 14.81674399250672"}}, "geometry": {"type": "Point", "coordinates": [-120.59321979599542, -28.16776619336311]}}, {"type": "Feature", "properties": {"norad_id": 49070, "name": "PLEIADES NEO 4", "group": "resource", "lat": 27.977378502654933, "lon": 59.43655350548628, "alt_km": 622.5541139366214, "timestamp": "2025-12-17T07:00:46.549417+00:00", "meta": {"OBJECT_NAME": "PLEIADES NEO 4", "OBJECT_ID": "2021-073E", "EPOCH": "2025-12-16T19:32:25.031904", "MEAN_MOTION": 14.81671846, "ECCENTRICITY": 0.0001248, "INCLINATION": 97.8946, "RA_OF_ASC_NODE": 63.1925, "ARG_OF_PERICENTER": 98.3982, "MEAN_ANOMALY": 261.7372, "EPHEMERIS_TYPE": 0, "CLASSIFICATION_TYPE": "U", "NORAD_CAT_ID": 49070, "ELEMENT_SET_NO": 999, "REV_AT_EPOCH": 23436, "BSTAR": 1.737636e-05, "MEAN_MOTION_DOT": 8.5e-07, "MEAN_MOTION_DDOT": 0}, "tle": {"line1": "1 49070U 21073E   25350.81417861  .00000085  00000+0  17376-4 0  9994", "line2": "2 49070  97.8946  63.1925 0001248  98.3982 261.7372 14.81671846234367"}}, "geometry": {"type": "Point", "coordinates": [59.43655350548628, 27.977378502654933]}}, {"type": "Feature", "properties": {"norad_id": 49260, "name": "LANDSAT 9", "group": "resource", "lat": 2.8865659131973964, "lon": 58.92011394604552, "alt_km": 705.0849193236836, "timestamp": "2025-12-17T07:00:46.549427+00:00", "meta": {"OBJECT_NAME": "LANDSAT 9", "OBJECT_ID": "2021-088A", "EPOCH": "2025-12-16T22:45:33.069024", "MEAN_MOTION": 14.57102344, "ECCENTRICITY": 0.00011285, "INCLINATION": 98.2091, "RA_OF_ASC_NODE": 58.9983, "ARG_OF_PERICENTER": 90.0797, "MEAN_ANOMALY": 270.0531, "EPHEMERIS_TYPE": 0, "CLASSIFICATION_TYPE": "U", "NORAD_CAT_ID": 49260, "ELEMENT_SET_NO": 999, "REV_AT_EPOCH": 22446, "BSTAR": 9.5742889e-05, "MEAN_MOTION_DOT": 3.86e-06, "MEAN_MOTION_DDOT": 0}, "tle": {"line1": "1 49260U 21088A   25350.94829941  .00000386  00000+0  95743-4 0  9999", "line2": "2 49260  98.2091  58.9983 0001128  90.0797 270.0531 14.57102344224465"}}, "geometry": {"type": "Point", "coordinates": [58.92011394604552, 2.8865659131973964]}}, {"type": "Feature", "properties": {"norad_id": 51444, "name": "CSG-2", "group": "resource", "lat": 67.52928993135686, "lon": 152.9818342541649, "alt_km": 614.9887284111228, "timestamp": "2025-12-17T07:00:46.549438+00:00", "meta": {"OBJECT_NAME": "CSG-2", "OBJECT_ID": "2022-008A", "EPOCH": "2025-12-17T00:13:20.140032", "MEAN_MOTION": 14.82149432, "ECCENTRICITY": 0.00014585, "INCLINATION": 97.8803, "RA_OF_ASC_NODE": 172.2675, "ARG_OF_PERICENTER": 84.5978, "MEAN_ANOMALY": 275.5402, "EPHEMERIS_TYPE": 0, "CLASSIFICATION_TYPE": "U", "NORAD_CAT_ID": 51444, "ELEMENT_SET_NO": 999, "REV_AT_EPOCH": 20960, "BSTAR": 9.2983035e-05, "MEAN_MOTION_DOT": 6.88e-06, "MEAN_MOTION_DDOT": 0}, "tle": {"line1": "1 51444U 22008A   25351.00926088  .00000688  00000+0  92983-4 0  9995", "line2": "2 51444  97.8803 172.2675 0001458  84.5978 275.5402 14.82149432209604"}}, "geometry": {"type": "Point", "coordinates": [152.9818342541649, 67.52928993135686]}}]}